[Satellite]
VERSION=1.1
NAME=CUBEBUG-2 (LO-74)
NICKNAME=CUBEBUG-2 (LO-74)
TLE1=1 39440U 13066AA  20157.69400586  .00000194  00000-0  33820-4 0  9993
TLE2=2 39440  97.6302 140.8451 0080690  19.4999 340.9267 14.76011331350844
STATUS=0
